satname,norad_id,inclination_deg,eccentricity,mean_motion_rev_per_day,perigee_km,apogee_km,l1,l2
STARLINK-1184,45098,53.0543,0.0001211,15.07271013,543.7049775820851,545.3816507541769,1 45098U 20006BG  26004.74713167  .00022582  00000+0  14945-2 0  9995,2 45098  53.0543 173.5779 0001211 128.8658 231.2440 15.07271013327386
STARLINK-1193,45100,53.0552,0.0002177,15.10334747,533.6732851133229,536.6833426009762,1 45100U 20006BJ  26004.91668980  .01828321  00000+0  10002+0 0  9993,2 45100  53.0552 172.8798 0002177  86.7051 100.4860 15.10334747  5838
STARLINK-1143,45179,53.0523,0.0004055,15.50507342,412.48903960606003,417.9984713987724,1 45179U 20012B   26004.13725254  .00044549  00000+0  77100-3 0  9995,2 45179  53.0523 282.4099 0004055 102.2216 257.9247 15.50507342325871
STARLINK-1202,45183,53.0574,0.0001589,15.06387503,546.149415736164,548.3503036801785,1 45183U 20012F   26004.61569119  .00000402  00000+0  45874-4 0  9993,2 45183  53.0574 334.2629 0001589  98.8619 261.2550 15.06387503325188
STARLINK-1216,45185,53.0555,0.0001496,15.06387328,546.2143581109831,548.2864340198857,1 45185U 20012H   26004.60831314  .00007629  00000+0  53068-3 0  9994,2 45185  53.0555 334.2904 0001496  88.0752 272.0408 15.06387328325122
STARLINK-1225,45187,53.0564,0.0001419,15.06383892,546.2782131123695,548.243641044075,1 45187U 20012K   26004.29501804  .00001353  00000+0  10976-3 0  9998,2 45187  53.0564 335.6972 0001419  93.5613 266.5538 15.06383892325120
STARLINK-1230,45189,53.054,0.0001304,15.06387473,546.3468811966259,548.1530221136172,1 45189U 20012M   26004.29868927 -.00000309  00000+0 -18643-5 0  9995,2 45189  53.0540 335.6829 0001304  89.7529 270.3609 15.06387473322356
STARLINK-1234,45190,53.0488,0.0013774,15.483315,412.2407081944466,430.972642070702,1 45190U 20012N   26004.91668980  .00059153  00000+0  10967-2 0  9990,2 45190  53.0488 273.6400 0013774  87.9843  43.4994 15.48331500  5943
STARLINK-1269,45197,53.0565,0.000163,15.06384739,546.129491661196,548.3871705391339,1 45197U 20012V   26004.17706331 -.00000631  00000+0 -23470-4 0  9992,2 45197  53.0565 336.2285 0001630  87.6039 272.5137 15.06384739325085
STARLINK-1154,45198,53.0557,0.0001742,15.3176075,469.3658657947117,471.7519514492751,1 45198U 20012W   26004.91668980  .01628730  00000+0  47526-1 0  9992,2 45198  53.0557 311.6656 0001742  95.3268 287.9344 15.31760750  5837
STARLINK-1199,45201,53.0561,0.0001858,15.06397701,545.9318729798897,548.5053351223542,1 45201U 20012Z   26004.57698519  .00002763  00000+0  20432-3 0  9990,2 45201  53.0561 314.4337 0001858  87.0312 273.0889 15.06397701325457
STARLINK-1209,45206,53.0501,0.0013971,15.40592746,434.8270689970659,453.890486699529,1 45206U 20012AE  26004.84475163  .00075030  00000+0  18027-2 0  9996,2 45206  53.0501 277.6999 0013971  86.0345 274.2256 15.40592746325044
STARLINK-1210,45207,53.017,0.000308,15.76340146,338.75090346312936,342.8897811860006,1 45207U 20012AF  26004.91668980  .00134234  00000+0  82502-3 0  9998,2 45207  53.0170 224.8978 0003080 202.9061  43.3850 15.76340146  5800
STARLINK-1231,45212,53.0518,0.0001785,15.16743982,514.4585057780714,516.919601679253,1 45212U 20012AL  26004.57662652  .00026400  00000+0  13405-2 0  9996,2 45212  53.0518 309.0966 0001785 105.4302 254.6889 15.16743982325487
STARLINK-1271,45217,53.0555,0.0001621,15.0638916,546.1221767895304,548.3673855629886,1 45217U 20012AR  26004.29685280  .00000455  00000+0  49470-4 0  9997,2 45217  53.0555 315.6883 0001621  99.9269 260.1903 15.06389160325417
STARLINK-1191,45222,53.0549,0.0001328,15.06398889,546.2952762546711,548.1346497360437,1 45222U 20012AW  26004.23971963  .00017542  00000+0  11936-2 0  9992,2 45222  53.0549 295.9466 0001328 102.0343 258.0795 15.06398889325688
STARLINK-1212,45223,53.0541,0.0001768,15.25452801,488.21191064839604,490.6402809590718,1 45223U 20012AX  26004.91668980  .01760809  00000+0  62757-1 0  9998,2 45223  53.0541 292.8193 0001768  73.7920 282.8009 15.25452801  5838
STARLINK-1215,45225,53.0544,0.0001146,15.06396508,546.4286142647661,548.0159066072583,1 45225U 20012AZ  26004.21391566  .00005701  00000+0  40134-3 0  9995,2 45225  53.0544 296.0598 0001146  84.8914 275.2206 15.06396508325632
STARLINK-1221,45227,53.0656,0.0004962,15.39384342,444.54161898992425,451.3158066033029,1 45227U 20012BB  26004.81878853  .00016521  00000+0  42524-3 0  9999,2 45227  53.0656 211.6846 0004962 147.8251 212.3056 15.39384342326860
STARLINK-1222,45228,53.0582,0.0002341,15.42913633,435.9198114283836,439.1108998612963,1 45228U 20012BC  26004.19443137  .00025614  00000+0  58123-3 0  9999,2 45228  53.0582 290.6781 0002341 103.0242 257.1025 15.42913633325640
STARLINK-1226,45229,53.0557,0.0001472,15.06406566,546.17202582154,548.2108425125598,1 45229U 20012BD  26004.21023237  .00004989  00000+0  35352-3 0  9999,2 45229  53.0557 296.0772 0001472  72.7091 287.4059 15.06406566325578
STARLINK-1227,45230,53.0556,0.0001403,15.06398612,546.2441849621173,548.187438961153,1 45230U 20012BE  26004.53828016  .00004917  00000+0  34875-3 0  9994,2 45230  53.0556 294.6036 0001403 109.7661 250.3479 15.06398612325740
STARLINK-1246,45235,53.0553,0.0001352,15.0638861,546.3101550230531,548.1827787124939,1 45235U 20012BK  26004.28764035  .00001675  00000+0  13136-3 0  9996,2 45235  53.0553 335.7287 0001352  97.9267 262.1875 15.06388610325153
STARLINK-1270,45237,53.055,0.0002446,15.37267314,452.5230397176483,455.86541615435544,1 45237U 20012BM  26004.21706535  .00044400  00000+0  12019-2 0  9993,2 45237  53.0550 293.1540 0002446 116.2074 243.9180 15.37267314325727
STARLINK-1279,45360,53.0489,0.0003134,15.44051194,432.03240210300555,436.3023544873204,1 45360U 20019A   26004.83189551  .00090131  00000+0  19294-2 0  9992,2 45360  53.0489  45.5101 0003134 307.2380  52.8339 15.44051194320761
STARLINK-1301,45361,53.0475,0.0005615,15.49085835,415.5822335978528,423.21586658210435,1 45361U 20019B   26004.72992470  .00087582  00000+0  15766-2 0  9999,2 45361  53.0475  54.2824 0005615 319.5963  40.4627 15.49085835320649
STARLINK-1306,45362,53.0325,0.0005582,16.0610004,253.8595025787472,261.2675986734648,1 45362U 20019C   26004.25448880  .00634026  20893-3  84256-3 0  9997,2 45362  53.0325  26.9151 0005582  55.3089 304.8468 16.06100040320976
STARLINK-1262,45366,53.0579,0.0001548,15.06388716,546.1740926785869,548.3181912993468,1 45366U 20019G   26004.40190299 -.00001929  00000+0 -11067-3 0  9992,2 45366  53.0579  95.2191 0001548 104.1458 255.9703 15.06388716320048
STARLINK-1273,45367,53.0571,0.0001336,15.06389613,546.3181619597253,548.1686236006763,1 45367U 20019H   26004.55671907 -.00001369  00000+0 -73039-4 0  9995,2 45367  53.0571  94.5215 0001336  97.2367 262.8774 15.06389613320060
STARLINK-1276,45368,53.0555,0.0001486,15.06385053,546.2282551161143,548.2864823224972,1 45368U 20019J   26004.52721850 -.00001860  00000+0 -10606-3 0  9992,2 45368  53.0555  94.6550 0001486  81.0713 279.0444 15.06385053320066
STARLINK-1277,45369,53.0551,2.26e-05,15.06563169,546.5550120134039,546.8680151662193,1 45369U 20019K   26003.98897535  .00022587  00000+0  15237-2 0  9997,2 45369  53.0551  97.6981 0000226 117.5740 242.5272 15.06563169319978
STARLINK-1281,45370,53.0566,0.0001457,15.06378985,546.2669339661006,548.2849993045784,1 45370U 20019L   26004.51617040 -.00001114  00000+0 -55925-4 0  9995,2 45370  53.0566  94.7072 0001457  89.0070 271.1086 15.06378985320064
STARLINK-1300,45374,53.055,0.0001179,15.0638753,546.4332738549128,548.0662800569189,1 45374U 20019Q   26004.47192940  .00000225  00000+0  34027-4 0  9991,2 45374  53.0550  94.9019 0001179  98.4189 261.6934 15.06387530320051
STARLINK-1302,45375,53.056,0.0001802,15.07260382,543.3283926100376,545.8233383267525,1 45375U 20019R   26004.75117183  .00111242  00000+0  72008-2 0  9990,2 45375  53.0560  93.6422 0001802  64.9599 295.1578 15.07260382320099
STARLINK-1304,45376,53.0569,0.0001241,15.28171357,480.42767796801763,482.1301850022119,1 45376U 20019S   26004.91668980  .01081819  00000+0  35524-1 0  9993,2 45376  53.0569  92.0965 0001241  82.6218  47.3295 15.28171357  5837
STARLINK-1305,45377,53.0492,0.000302,15.4183268,438.641254206691,442.7598320827501,1 45377U 20019T   26004.55877961  .00071862  00000+0  16632-2 0  9991,2 45377  53.0492  78.6283 0003020 264.7196  95.3464 15.41832680320290
STARLINK-1319,45379,53.052,0.0003669,15.45351396,427.8477278756809,432.84379252511553,1 45379U 20019V   26004.51213317  .00077000  00000+0  15810-2 0  9995,2 45379  53.0520  79.1013 0003669 259.4694 100.5899 15.45351396320288
STARLINK-1266,45383,53.0551,0.0001126,15.07634173,542.6522074474069,544.210944690738,1 45383U 20019Z   26004.85644691  .00374006  00000+0  23044-1 0  9993,2 45383  53.0551  73.1729 0001126 118.3101 241.8002 15.07634173320388
STARLINK-1267,45384,53.0546,0.0001701,15.38214726,450.22680672243223,452.55021130059777,1 45384U 20019AA  26004.66439861  .00060313  00000+0  15765-2 0  9999,2 45384  53.0546  71.4140 0001701  24.3387 335.7696 15.38214726320397
STARLINK-1272,45386,53.0493,0.000483,15.44000148,431.02710910686255,437.60794017766784,1 45386U 20019AC  26004.63024893  .00023445  00000+0  51375-3 0  9996,2 45386  53.0493  57.0768 0004830 298.6627  61.3893 15.44000148320596
STARLINK-1274,45387,53.0334,0.0005242,15.38070624,448.23481411964985,455.39533587507685,1 45387U 20019AD  26004.84149708  .00079246  00000+0  20720-2 0  9992,2 45387  53.0334  46.0544 0005242  26.0834 334.0432 15.38070624320769
STARLINK-1280,45388,53.049,0.0003603,15.50951597,411.4992406749898,416.3936159934483,1 45388U 20019AE  26004.91668980  .00083274  00000+0  14051-2 0  9995,2 45388  53.0490  72.4258 0003603 274.3177 147.3416 15.50951597  5954
STARLINK-1283,45389,53.0514,0.0005791,15.42865099,433.7112614339967,441.6053155371201,1 45389U 20019AF  26004.41360931  .00073006  00000+0  16313-2 0  9991,2 45389  53.0514  58.2035 0005791  14.0616 346.0549 15.42865099320568
